{
  "norad_id": 59902,
  "name": "STARLINK-31914",
  "history": [
    {
      "epoch": "2026-03-28T20:16:11.625600Z",
      "apogee_km": 483.3421808336343,
      "perigee_km": 482.76323364613654,
      "latitude_deg": 5.99726003198849e-06,
      "longitude_deg": -112.85702455859654,
      "height_km": 482.5594124674413,
      "semi_major_axis_km": 6861.189707239885,
      "eccentricity": 4.219e-05,
      "inclination_deg": 43.0044,
      "raan_deg": 17.4506,
      "arg_perigee_deg": 338.5298,
      "mean_anomaly_deg": 21.5536,
      "mean_motion_rev_day": 15.27578794
    },
    {
      "epoch": "2026-03-29T04:06:57.201696Z",
      "apogee_km": 483.6070189315369,
      "perigee_km": 482.43101679007486,
      "latitude_deg": 1.0899428285870202e-05,
      "longitude_deg": 127.28675679738437,
      "height_km": 482.6422650006008,
      "semi_major_axis_km": 6861.156017860805,
      "eccentricity": 8.57e-05,
      "inclination_deg": 43.0046,
      "raan_deg": 15.6065,
      "arg_perigee_deg": 285.1316,
      "mean_anomaly_deg": 74.9441,
      "mean_motion_rev_day": 15.27590045
    },
    {
      "epoch": "2026-03-30T03:39:18.232704Z",
      "apogee_km": 483.9276017322054,
      "perigee_km": 482.12723218919473,
      "latitude_deg": 4.308451475504627e-05,
      "longitude_deg": 127.69194293457377,
      "height_km": 482.7815333979926,
      "semi_major_axis_km": 6861.1644169607,
      "eccentricity": 0.0001312,
      "inclination_deg": 43.0046,
      "raan_deg": 10.066,
      "arg_perigee_deg": 271.4655,
      "mean_anomaly_deg": 88.6047,
      "mean_motion_rev_day": 15.2758724
    },
    {
      "epoch": "2026-03-30T11:30:05.515200Z",
      "apogee_km": 483.9633162885466,
      "perigee_km": 482.1225989295199,
      "latitude_deg": 1.2968749627225428e-05,
      "longitude_deg": 7.8262578370428395,
      "height_km": 482.5893026664556,
      "semi_major_axis_km": 6861.179957609033,
      "eccentricity": 0.00013414,
      "inclination_deg": 43.004,
      "raan_deg": 8.2196,
      "arg_perigee_deg": 284.5199,
      "mean_anomaly_deg": 75.5504,
      "mean_motion_rev_day": 15.2758205
    },
    {
      "epoch": "2026-03-30T17:46:43.494816Z",
      "apogee_km": 483.5012542217528,
      "perigee_km": 482.58446336901943,
      "latitude_deg": -1.726171130858323e-05,
      "longitude_deg": -88.06391862000449,
      "height_km": 482.5021589239962,
      "semi_major_axis_km": 6861.179858795385,
      "eccentricity": 6.681e-05,
      "inclination_deg": 43.0024,
      "raan_deg": 6.7455,
      "arg_perigee_deg": 313.7348,
      "mean_anomaly_deg": 46.3448,
      "mean_motion_rev_day": 15.27582083
    },
    {
      "epoch": "2026-03-31T18:53:14.678016Z",
      "apogee_km": 483.88224753017494,
      "perigee_km": 482.31788547901306,
      "latitude_deg": -2.2583122038778967e-06,
      "longitude_deg": -111.63480732372045,
      "height_km": 482.89411512102754,
      "semi_major_axis_km": 6861.237066504594,
      "eccentricity": 0.000114,
      "inclination_deg": 43.0027,
      "raan_deg": 0.8357,
      "arg_perigee_deg": 268.7351,
      "mean_anomaly_deg": 91.337,
      "mean_motion_rev_day": 15.27562978
    },
    {
      "epoch": "2026-04-01T10:34:46.413408Z",
      "apogee_km": 484.10910880671236,
      "perigee_km": 481.92863347086586,
      "latitude_deg": 2.654665926254455e-07,
      "longitude_deg": 8.64551176176476,
      "height_km": 482.55841355042816,
      "semi_major_axis_km": 6861.155871138789,
      "eccentricity": 0.0001589,
      "inclination_deg": 43.0081,
      "raan_deg": 357.1427,
      "arg_perigee_deg": 282.621,
      "mean_anomaly_deg": 77.4464,
      "mean_motion_rev_day": 15.27590094
    },
    {
      "epoch": "2026-04-02T17:57:56.092896Z",
      "apogee_km": 483.44366453826296,
      "perigee_km": 482.7012816732722,
      "latitude_deg": 1.614964334134347e-05,
      "longitude_deg": -110.81857941263655,
      "height_km": 482.6643853048119,
      "semi_major_axis_km": 6861.209473105767,
      "eccentricity": 5.41e-05,
      "inclination_deg": 43.002,
      "raan_deg": 349.7579,
      "arg_perigee_deg": 299.7529,
      "mean_anomaly_deg": 60.3269,
      "mean_motion_rev_day": 15.27572193
    },
    {
      "epoch": "2026-04-02T17:57:56.093760Z",
      "apogee_km": 483.4439389866411,
      "perigee_km": 482.70100722489315,
      "latitude_deg": 1.8881990838303713e-05,
      "longitude_deg": -110.81858010880619,
      "height_km": 482.6642491262514,
      "semi_major_axis_km": 6861.209473105767,
      "eccentricity": 5.414e-05,
      "inclination_deg": 43.002,
      "raan_deg": 349.7579,
      "arg_perigee_deg": 299.7529,
      "mean_anomaly_deg": 60.3269,
      "mean_motion_rev_day": 15.27572193
    },
    {
      "epoch": "2026-04-03T09:39:27.895680Z",
      "apogee_km": 483.6664460633583,
      "perigee_km": 482.37654826589096,
      "latitude_deg": 3.747839247855494e-05,
      "longitude_deg": 9.461677456566244,
      "height_km": 483.04859637974744,
      "semi_major_axis_km": 6861.158497164624,
      "eccentricity": 9.4e-05,
      "inclination_deg": 43.0044,
      "raan_deg": 346.0651,
      "arg_perigee_deg": 247.1536,
      "mean_anomaly_deg": 112.9217,
      "mean_motion_rev_day": 15.27589217
    },
    {
      "epoch": "2026-04-04T01:21:04.548096Z",
      "apogee_km": 483.48485170046024,
      "perigee_km": 482.70802285069294,
      "latitude_deg": -1.7724355901436748e-05,
      "longitude_deg": 129.72089035350882,
      "height_km": 482.5288682489492,
      "semi_major_axis_km": 6861.233437275577,
      "eccentricity": 5.661e-05,
      "inclination_deg": 43.0017,
      "raan_deg": 342.3716,
      "arg_perigee_deg": 332.1683,
      "mean_anomaly_deg": 27.9138,
      "mean_motion_rev_day": 15.2756419
    },
    {
      "epoch": "2026-04-05T08:44:11.092128Z",
      "apogee_km": 484.2366572269193,
      "perigee_km": 481.87078144307725,
      "latitude_deg": 2.6964814174629657e-05,
      "longitude_deg": 10.269927302828284,
      "height_km": 482.3699939393245,
      "semi_major_axis_km": 6861.190719334998,
      "eccentricity": 0.00017241,
      "inclination_deg": 43.0031,
      "raan_deg": 334.9868,
      "arg_perigee_deg": 292.9357,
      "mean_anomaly_deg": 67.1313,
      "mean_motion_rev_day": 15.27578456
    },
    {
      "epoch": "2026-04-06T01:59:55.591584Z",
      "apogee_km": 483.880493101311,
      "perigee_km": 482.3102314628795,
      "latitude_deg": -3.5319157967218492e-06,
      "longitude_deg": 106.56313906428824,
      "height_km": 482.6461422655855,
      "semi_major_axis_km": 6861.232362282095,
      "eccentricity": 0.00011443,
      "inclination_deg": 43.0046,
      "raan_deg": 330.9244,
      "arg_perigee_deg": 286.7453,
      "mean_anomaly_deg": 73.3273,
      "mean_motion_rev_day": 15.27564549
    },
    {
      "epoch": "2026-04-07T07:48:53.102304Z",
      "apogee_km": 483.6524698079438,
      "perigee_km": 482.48976947998835,
      "latitude_deg": -2.8353914156254107e-05,
      "longitude_deg": 11.084282773284375,
      "height_km": 482.76787049826623,
      "semi_major_axis_km": 6861.208119643966,
      "eccentricity": 8.473e-05,
      "inclination_deg": 43.001,
      "raan_deg": 323.9097,
      "arg_perigee_deg": 277.869,
      "mean_anomaly_deg": 82.2065,
      "mean_motion_rev_day": 15.27572645
    },
    {
      "epoch": "2026-04-08T07:21:13.634784Z",
      "apogee_km": 483.8439998617223,
      "perigee_km": 482.26016297416845,
      "latitude_deg": 3.905090725462203e-05,
      "longitude_deg": 11.492285837755864,
      "height_km": 482.80455845254556,
      "semi_major_axis_km": 6861.189081417945,
      "eccentricity": 0.00011542,
      "inclination_deg": 43.0025,
      "raan_deg": 318.3699,
      "arg_perigee_deg": 271.758,
      "mean_anomaly_deg": 88.314,
      "mean_motion_rev_day": 15.27579003
    },
    {
      "epoch": "2026-04-09T21:00:58.972320Z",
      "apogee_km": 483.83590039208866,
      "perigee_km": 482.26194434149784,
      "latitude_deg": 5.604845514406138e-05,
      "longitude_deg": 156.14284510303622,
      "height_km": 482.6597861908756,
      "semi_major_axis_km": 6861.185922366793,
      "eccentricity": 0.0001147,
      "inclination_deg": 43.0057,
      "raan_deg": 309.5061,
      "arg_perigee_deg": 282.196,
      "mean_anomaly_deg": 77.8764,
      "mean_motion_rev_day": 15.27580058
    },
    {
      "epoch": "2026-04-10T06:25:55.375392Z",
      "apogee_km": 483.82859706056024,
      "perigee_km": 482.2812610567198,
      "latitude_deg": 4.997382581212795e-05,
      "longitude_deg": 12.30583710285466,
      "height_km": 482.70157215107224,
      "semi_major_axis_km": 6861.19192905864,
      "eccentricity": 0.00011276,
      "inclination_deg": 43.0044,
      "raan_deg": 307.2908,
      "arg_perigee_deg": 279.6972,
      "mean_anomaly_deg": 80.3753,
      "mean_motion_rev_day": 15.27578052
    },
    {
      "epoch": "2026-04-11T20:05:40.666272Z",
      "apogee_km": 483.66711090268836,
      "perigee_km": 482.4595396454397,
      "latitude_deg": -3.8130240082615075e-06,
      "longitude_deg": 156.9576174699664,
      "height_km": 482.80265746015834,
      "semi_major_axis_km": 6861.200325274063,
      "eccentricity": 8.8e-05,
      "inclination_deg": 43.0071,
      "raan_deg": 298.4281,
      "arg_perigee_deg": 273.5814,
      "mean_anomaly_deg": 86.4937,
      "mean_motion_rev_day": 15.27575248
    },
    {
      "epoch": "2026-04-13T05:02:57.695136Z",
      "apogee_km": 484.0459901895374,
      "perigee_km": 482.0611849763609,
      "latitude_deg": -3.5044500114763084e-05,
      "longitude_deg": 13.528227246587651,
      "height_km": 482.7437299384014,
      "semi_major_axis_km": 6861.190587582949,
      "eccentricity": 0.00014464,
      "inclination_deg": 43.0026,
      "raan_deg": 290.6731,
      "arg_perigee_deg": 275.0235,
      "mean_anomaly_deg": 85.0451,
      "mean_motion_rev_day": 15.275785
    }
  ]
}